spkid,full_name,pdes,name,prefix,neo,sats,H,M1,M2,K1,K2,PC,diameter,extent,albedo,rot_per,GM,H_sigma,diameter_sigma,orbit_id,epoch,epoch_mjd,epoch_cal,equinox,e,a,q,i,om,w,ma,ad,n,tp,tp_cal,per,per_y,moid,moid_ld,moid_jup,t_jup,sigma_e,sigma_a,sigma_q,sigma_i,sigma_om,sigma_w,sigma_ma,sigma_ad,sigma_n,sigma_tp,sigma_per,class,producer,data_arc,first_obs,last_obs,n_obs_used,n_del_obs_used,n_dop_obs_used,condition_code,rms,two_body,A1,A1_sigma,A2,A2_sigma,A3,A3_sigma,DT,DT_sigma
1000021,66P/du Toit,66P,du Toit,P,Y,0,,15.7,,7.0,,,,,,,,,,JPL K184/8,2456961.5,56961,2014-10-31.0,J2000,0.7866,6.023,1.285,18.67,22.0,257.34,273.48,10.76,0.06668,2458258.97,2018-05-20.4,5400.0,14.8,0.438,171.0,0.864,2.12,1.3e-07,1.2e-07,7.8e-07,1.7e-05,3.1e-05,4.9e-05,4.8e-06,2.1e-07,1.9e-09,5.2e-05,0.00016,JFc,Davide Farnocchia,16304.0,1974-03-22,2018-11-10,547,,,0.0,0.70648,,7.7e-10,1.7e-10,-8.9e-11,6.2e-13,,,,
1000012,67P/Churyumov-Gerasimenko,67P,Churyumov-Gerasimenko,P,Y,0,,12.9,,7.5,,,3.4,,,12.76129,6.622e-07,,0.1,JPL K213/6,2457305.5,57305,2015-10-10.0,J2000,0.6409,3.462,1.243,7.04,50.14,12.8,8.86,5.68,0.153,2457247.59,2015-08-13.0,2350.0,6.44,0.257,100.0,0.0838,2.75,2.7e-08,1.5e-07,9.9e-08,2.7e-06,2.3e-05,2.3e-05,2.8e-06,2.5e-07,1e-08,1.8e-05,0.00016,JFc,Davide Farnocchia,5442.0,2008-06-01,2023-04-26,8608,,,0.0,0.55105,,1e-09,1.3e-11,-6.7e-11,2.9e-12,3e-10,1.1e-11,45.7,1.18
1000051,68P/Klemola,68P,Klemola,P,,0,,11.2,14.1,11.75,5.0,0.03,4.4,,,,,,,JPL K192/3,2457453.5,57453,2016-03-06.0,J2000,0.6403,4.899,1.762,11.18,175.3,153.84,237.68,8.04,0.09089,2458799.32,2019-11-11.8,3960.0,10.8,0.758,295.0,0.174,2.52,8.2e-08,5.8e-08,4e-07,5.3e-06,6.6e-05,7.2e-05,8.8e-06,9.5e-08,1.6e-09,8e-05,7e-05,JFc,Davide Farnocchia,4656.0,2008-04-13,2021-01-11,1680,,,0.0,0.5726,,,,,,,,,
1000092,69P/Taylor,69P,Taylor,P,,0,,17.3,,4.5,,,,,,,,,,JPL K192/7,2457557.5,57557,2016-06-18.0,J2000,0.4136,3.889,2.28,22.04,104.85,343.67,231.04,5.5,0.1285,2458560.98,2019-03-18.4,2800.0,7.67,1.31,508.0,0.134,2.8,1.5e-06,1.6e-06,6.9e-06,4.9e-05,0.00014,0.00048,0.00023,2.2e-06,7.7e-08,0.0017,0.0017,JFc,Davide Farnocchia,2686.0,2011-10-28,2019-03-06,46,,,1.0,0.57163,,,,,,,,,
1000053,70P/Kojima,70P,Kojima,P,,0,,12.2,15.0,11.75,5.0,0.03,3.0,,,,,,,JPL 66,2457135.5,57135,2015-04-23.0,J2000,0.4539,3.675,2.007,6.6,119.27,1.96,25.79,5.34,0.1399,2456951.18,2014-10-20.6,2570.0,7.04,1.02,398.0,0.14,2.9,9e-08,3.2e-08,3.3e-07,5.3e-06,2.1e-05,4.3e-05,1.8e-05,4.7e-08,1.8e-09,0.00012,3.4e-05,JFc,Davide Farnocchia,18799.0,1970-12-27,2022-06-16,2086,,,0.0,0.54678,,2e-10,4.7e-11,-7.5e-11,9.5e-13,,,,
1000014,71P/Clark,71P,Clark,P,,0,,11.1,14.6,14.25,5.0,0.03,1.36,,,,,,,JPL K232/38,2458629.5,58629,2019-05-26.0,J2000,0.4945,3.139,1.587,9.44,59.44,208.97,123.11,4.69,0.1772,2457934.86,2017-06-30.3,2030.0,5.56,0.579,225.0,0.556,2.99,2e-07,2.8e-07,6.7e-07,9.4e-06,5.2e-05,8e-05,3.3e-05,4.2e-07,2.4e-08,0.00012,0.00028,JFc,Davide Farnocchia,2863.0,2016-02-12,2023-12-15,1367,,,1.0,0.68569,,2.3e-08,1.6e-10,2e-10,6.1e-11,1.5e-09,5.1e-11,30.6,0.44
1000020,72P/Denning-Fujikawa,72P,Denning-Fujikawa,P,Y,0,,17.5,21.4,19.0,5.0,0.03,,,,,,,,JPL K236/7,2457286.5,57286,2015-09-21.0,J2000,0.8205,4.347,0.781,9.23,35.44,338.47,47.38,7.91,0.1087,2456850.78,2014-07-12.2,3310.0,9.06,0.0882,34.3,0.173,2.23,4.4e-07,2.3e-06,2.2e-06,7.3e-05,0.00041,0.00038,4.3e-05,4.1e-06,8.5e-08,8.7e-05,0.0026,JFc,Davide Farnocchia,16324.0,1978-10-10,2023-06-20,66,,,1.0,0.98029,,,,1.8e-10,1.3e-12,,,,
1000394,73P/Schwassmann-Wachmann 3,73P,Schwassmann-Wachmann,P,Y,0,,14.3,,8.0,,,,,,,,,,JPL K222/30,2457800.5,57800,2017-02-16.0,J2000,0.6855,3.091,0.972,11.24,69.66,199.39,354.77,5.21,0.1813,2457829.34,2017-03-16.8,1990.0,5.44,0.0144,5.62,0.202,2.78,7.3e-07,7.8e-06,3.7e-07,1.1e-05,9.4e-05,0.00012,4.5e-05,1.3e-05,6.9e-07,0.00018,0.0075,JFc,Davide Farnocchia,2740.0,2016-02-13,2023-08-15,515,,,3.0,0.47336,,4.8e-09,1.5e-10,6.9e-10,4.5e-11,,,,
1003776,73P/Schwassmann-Wachmann 3-A,73P-A,Schwassmann-Wachmann,P,Y,0,,,,,,,,,,,,,,JPL 1,2450080.5,50080,1995-12-29.0,J2000,0.6957,3.067,0.933,11.42,69.94,198.83,17.81,5.2,0.1835,2449983.43,1995-09-22.9,1960.0,5.37,0.0446,17.4,0.203,2.78,0.00059,0.0092,0.00098,0.00018,0.01,0.096,0.086,0.016,0.00082,0.034,8.8,JFc,Davide Farnocchia,58.0,1995-12-23,1996-02-19,62,,,7.0,0.81945,,,,,,,,,
1000320,73P/Schwassmann-Wachmann 3-B,73P-B,Schwassmann-Wachmann,P,Y,0,,15.2,,8.0,,,,,,,,,,JPL K061/24,2453880.5,53880,2006-05-25.0,J2000,0.6933,3.062,0.939,11.4,69.89,198.8,357.44,5.18,0.184,2453894.42,2006-06-07.9,1960.0,5.36,0.0407,15.8,,2.78,4.2e-07,3.9e-06,1e-07,6e-06,1.7e-05,2.5e-05,4.1e-06,6.6e-06,3.5e-07,1.1e-05,0.0038,JFc,Nick Mastrodemos,3806.0,1995-12-23,2006-05-25,1484,,,2.0,0.91193,,1.5e-08,1.3e-10,2e-09,1.5e-12,,,,
1000081,73P/Schwassmann-Wachmann 3-C,73P-C,Schwassmann-Wachmann,P,Y,0,,13.2,,9.0,,,,,,,,,,JPL K114/1,2455980.5,55980,2012-02-23.0,J2000,0.6922,3.063,0.943,11.38,69.84,198.87,23.73,5.18,0.1838,2455851.4,2011-10-16.8,1960.0,5.36,0.0384,14.9,0.206,2.78,1.2e-07,2.8e-07,4.5e-07,3e-06,1.1e-05,2.6e-05,2e-05,4.7e-07,2.5e-08,9.2e-05,0.00027,JFc,Alan B. Chamberlin,5853.0,1995-12-15,2011-12-24,3223,,,0.0,0.85683,,6.5e-09,3.7e-11,4.8e-10,1.6e-11,,,-12.2,0.394
1000324,73P/Schwassmann-Wachmann 3-E,73P-E,Schwassmann-Wachmann,P,Y,0,,10.4,,15.0,,,,,,,,,,JPL K013/11,2451920.5,51920,2001-01-11.0,J2000,0.6939,3.062,0.937,11.41,69.92,198.77,356.79,5.19,0.1839,2451937.95,2001-01-28.4,1960.0,5.36,0.041,16.0,,2.78,8.2e-07,8.8e-06,1.2e-06,2.8e-05,0.0002,0.0003,2.8e-05,1.5e-05,7.9e-07,0.00021,0.0085,JFc,M.S.W. Keesey,4021.0,1989-12-09,2000-12-12,129,,,0.0,1.2335,,1.7e-08,2.9e-10,5.8e-09,1e-12,,,,
1002326,73P/Schwassmann-Wachmann 3-G,73P-G,Schwassmann-Wachmann,P,Y,0,,16.8,18.0,8.0,5.0,,,,,,,,,JPL 19,2453839.5,53839,2006-04-14.0,J2000,0.6934,3.063,0.939,11.39,69.91,198.77,349.87,5.19,0.1838,2453894.6,2006-06-08.0,1960.0,5.36,0.0405,15.8,,2.78,2e-05,0.0002,7.4e-07,0.00014,0.00046,0.0005,0.001,0.00033,1.8e-05,0.00019,0.19,JFc,Nick Mastrodemos,72.0,2006-02-20,2006-05-03,551,,,5.0,0.97447,,,,,,,,,
1002327,73P/Schwassmann-Wachmann 3-H,73P-H,Schwassmann-Wachmann,P,Y,0,,20.2,21.7,8.0,5.0,,,,,,,,,JPL 14,2453839.5,53839,2006-04-14.0,J2000,0.6936,3.065,0.939,11.39,69.91,198.77,349.85,5.19,0.1837,2453894.78,2006-06-08.2,1960.0,5.37,0.0406,15.8,,2.78,3.5e-05,0.00035,2.1e-06,0.00029,0.00039,0.00034,0.0018,0.00059,3.1e-05,0.00031,0.33,JFc,Nick Mastrodemos,68.0,2006-03-04,2006-05-11,112,,,5.0,0.87905,,,,,,,,,
1002336,73P/Schwassmann-Wachmann 3-J,73P-J,Schwassmann-Wachmann,P,Y,0,,,,,,,,,,,,,,JPL 3,2453815.5,53815,2006-03-21.0,J2000,0.6915,3.044,0.939,11.38,69.83,198.87,345.31,5.15,0.1856,2453894.65,2006-06-08.1,1940.0,5.31,0.0407,15.8,,2.79,0.00039,0.0041,0.0001,0.0019,0.024,0.031,0.03,0.0069,0.00038,0.0034,3.9,JFc,Otto Matic,28.0,2006-03-05,2006-04-02,42,,,7.0,0.86056,,,,,,,,,
1002332,73P/Schwassmann-Wachmann 3-K,73P-K,Schwassmann-Wachmann,P,Y,0,,20.9,,10.0,,,,,,,,,,JPL 4,2453839.5,53839,2006-04-14.0,J2000,0.6935,3.064,0.939,11.39,69.9,198.79,349.85,5.19,0.1837,2453894.72,2006-06-08.2,1960.0,5.36,0.0406,15.8,,2.78,0.00018,0.0019,1.6e-05,0.001,0.0079,0.0092,0.0095,0.0031,0.00017,0.0015,1.8,JFc,Nick Mastrodemos,47.0,2006-03-05,2006-04-21,42,,,6.0,0.90696,,,,,,,,,
1002334,73P/Schwassmann-Wachmann 3-L,73P-L,Schwassmann-Wachmann,P,Y,0,,20.9,21.7,10.0,5.0,,,,,,,,,JPL 7,2453839.5,53839,2006-04-14.0,J2000,0.6947,3.076,0.939,11.4,69.94,198.75,349.89,5.21,0.1827,2453894.83,2006-06-08.3,1970.0,5.4,0.0407,15.8,,2.78,7.9e-05,0.00079,2.9e-06,0.00055,0.0019,0.002,0.004,0.0013,7e-05,0.0007,0.76,JFc,Nick Mastrodemos,58.0,2006-03-05,2006-05-02,39,,,6.0,1.2502,,,,,,,,,
1002331,73P/Schwassmann-Wachmann 3-M,73P-M,Schwassmann-Wachmann,P,Y,0,,21.0,21.8,15.0,5.0,,,,,,,,,JPL 11,2453839.5,53839,2006-04-14.0,J2000,0.6939,3.068,0.939,11.39,69.91,198.78,349.87,5.2,0.1834,2453894.76,2006-06-08.2,1960.0,5.37,0.0406,15.8,,2.78,0.00027,0.0027,1e-05,0.002,0.0052,0.0051,0.014,0.0046,0.00024,0.0024,2.6,JFc,Nick Mastrodemos,44.0,2006-03-23,2006-05-06,73,,,7.0,0.87669,,,,,,,,,
1002338,73P/Schwassmann-Wachmann 3-N,73P-N,Schwassmann-Wachmann,P,Y,0,,20.4,21.2,10.0,5.0,,,,,,,,,JPL 14,2453839.5,53839,2006-04-14.0,J2000,0.6923,3.052,0.939,11.38,69.9,198.76,349.79,5.17,0.1848,2453894.77,2006-06-08.2,1950.0,5.33,0.0405,15.8,,2.79,0.00012,0.0012,6.2e-06,0.001,0.0018,0.0016,0.0062,0.002,0.00011,0.001,1.2,JFc,Nick Mastrodemos,41.0,2006-03-23,2006-05-03,133,,,6.0,1.1812,,,,,,,,,
1002335,73P/Schwassmann-Wachmann 3-P,73P-P,Schwassmann-Wachmann,P,Y,0,,,,,,,,,,,,,,JPL 7,2453839.5,53839,2006-04-14.0,J2000,0.6956,3.085,0.939,11.41,69.96,198.72,350.02,5.23,0.1819,2453894.35,2006-06-07.8,1980.0,5.42,0.0407,15.8,,2.77,0.00064,0.0065,1.1e-05,0.0043,0.017,0.019,0.032,0.011,0.00057,0.0056,6.2,JFc,Nick Mastrodemos,29.0,2006-03-23,2006-04-21,55,,,7.0,1.1,,,,,,,,,
1002333,73P/Schwassmann-Wachmann 3-Q,73P-Q,Schwassmann-Wachmann,P,Y,0,,21.5,,7.5,,,,,,,,,,JPL 3,2453839.5,53839,2006-04-14.0,J2000,0.6986,3.118,0.94,11.42,70.14,198.5,350.21,5.3,0.179,2453894.18,2006-06-07.6,2010.0,5.51,0.0407,15.9,,2.75,0.0059,0.063,0.00037,0.036,0.22,0.25,0.3,0.11,0.0054,0.05,61.0,JFc,Nick Mastrodemos,17.0,2006-03-23,2006-04-09,37,,,9.0,0.74508,,,,,,,,,
1002339,73P/Schwassmann-Wachmann 3-R,73P-R,Schwassmann-Wachmann,P,Y,0,,19.2,20.0,8.0,5.0,,,,,,,,,JPL 15,2453839.5,53839,2006-04-14.0,J2000,0.6941,3.07,0.939,11.39,69.91,198.77,349.89,5.2,0.1832,2453894.68,2006-06-08.1,1960.0,5.38,0.0406,15.8,,2.78,0.00012,0.0012,5.8e-06,0.00096,0.0017,0.0015,0.0059,0.002,0.0001,0.00099,1.1,JFc,Nick Mastrodemos,39.0,2006-03-24,2006-05-02,280,,,6.0,1.0588,,,,,,,,,
1002340,73P/Schwassmann-Wachmann 3-S,73P-S,Schwassmann-Wachmann,P,Y,0,,21.1,,15.0,,,,,,,,,,JPL 2,2453839.5,53839,2006-04-14.0,J2000,0.6934,3.334,1.022,11.05,81.99,181.56,350.97,5.65,0.1619,2453895.26,2006-06-08.7,2220.0,6.09,0.00735,2.86,,2.69,0.12,1.4,0.038,0.82,6.9,8.9,5.8,2.4,0.1,0.48,1400.0,JFc,Nick Mastrodemos,1.0,2006-03-24,2006-03-25,11,,,9.0,0.74496,,,,,,,,,
